start=new Date('2022-05-20T00:00:00.000Z').valueOf();
sats=[{"REF_FRAME":"TEME","PERIAPSIS":"546.163","CLASSIFICATION_TYPE":"U","RA_OF_ASC_NODE":"64.7092","DECAY_DATE":null,"REV_AT_EPOCH":"9742","OBJECT_NAME":"STARLINK-1643","BSTAR":"0.00023021000000","ARG_OF_PERICENTER":"52.1524","MEAN_MOTION_DOT":"0.00003148","PERIOD":"95.593","MEAN_ANOMALY":"307.9606","EPHEMERIS_TYPE":"0","NORAD_CAT_ID":"46136","SITE":"AFETR","TLE_LINE1":"1 46136U 20057V   22140.10214524  .00003148  00000-0  23021-3 0  9999","TLE_LINE2":"2 46136  53.0551  64.7092 0001565  52.1524 307.9606 15.06389032 97425","OBJECT_ID":"2020-057V","GP_ID":"203992364","ECCENTRICITY":"0.00015650","FILE":"3453862","INCLINATION":"53.0551","EPOCH":"2022-05-20T02:27:05.348736","MEAN_ELEMENT_THEORY":"SGP4","SEMIMAJOR_AXIS":"6925.382","MEAN_MOTION":"15.06389032","RCS_SIZE":"LARGE","ELEMENT_SET_NO":"999","CENTER_NAME":"EARTH","TIME_SYSTEM":"UTC","COUNTRY_CODE":"US","OBJECT_TYPE":"PAYLOAD","MEAN_MOTION_DDOT":"0.0000000000000","LAUNCH_DATE":"2020-08-18","APOAPSIS":"548.331"},{"EPHEMERIS_TYPE":"0","OBJECT_ID":"2020-057W","NORAD_CAT_ID":"46137","SITE":"AFETR","TLE_LINE1":"1 46137U 20057W   22140.05515285  .00001064  00000-0  90361-4 0  9999","TLE_LINE2":"2 46137  53.0575  54.9372 0002315  40.6212 319.4950 15.06386812 97551","MEAN_MOTION_DOT":"0.00001064","MEAN_ANOMALY":"319.4950","PERIOD":"95.593","OBJECT_NAME":"STARLINK-1586","REV_AT_EPOCH":"9755","ARG_OF_PERICENTER":"40.6212","BSTAR":"0.00009036100000","REF_FRAME":"TEME","PERIAPSIS":"545.651","CLASSIFICATION_TYPE":"U","DECAY_DATE":null,"RA_OF_ASC_NODE":"54.9372","LAUNCH_DATE":"2020-08-18","APOAPSIS":"548.857","OBJECT_TYPE":"PAYLOAD","COUNTRY_CODE":"US","MEAN_MOTION_DDOT":"0.0000000000000","ELEMENT_SET_NO":"999","RCS_SIZE":"LARGE","CENTER_NAME":"EARTH","TIME_SYSTEM":"UTC","GP_ID":"203996966","ECCENTRICITY":"0.00023150","SEMIMAJOR_AXIS":"6925.389","MEAN_ELEMENT_THEORY":"SGP4","MEAN_MOTION":"15.06386812","FILE":"3454093","INCLINATION":"53.0575","EPOCH":"2022-05-20T01:19:25.206240"},{"CENTER_NAME":"EARTH","TIME_SYSTEM":"UTC","RCS_SIZE":"LARGE","ELEMENT_SET_NO":"999","FILE":"3453038","INCLINATION":"53.0565","EPOCH":"2022-05-19T12:32:27.102624","SEMIMAJOR_AXIS":"6925.377","MEAN_ELEMENT_THEORY":"SGP4","MEAN_MOTION":"15.06390631","GP_ID":"203942770","ECCENTRICITY":"0.00020370","LAUNCH_DATE":"2020-08-18","APOAPSIS":"548.653","MEAN_MOTION_DDOT":"0.0000000000000","COUNTRY_CODE":"US","OBJECT_TYPE":"PAYLOAD","ARG_OF_PERICENTER":"51.5078","BSTAR":"0.00005163600000","REV_AT_EPOCH":"9653","OBJECT_NAME":"STARLINK-1590","RA_OF_ASC_NODE":"77.3211","DECAY_DATE":null,"REF_FRAME":"TEME","CLASSIFICATION_TYPE":"U","PERIAPSIS":"545.832","SITE":"AFETR","NORAD_CAT_ID":"46138","TLE_LINE1":"1 46138U 20057X   22139.52253591  .00000487  00000-0  51636-4 0  9999","TLE_LINE2":"2 46138  53.0565  77.3211 0002037  51.5078 308.6093 15.06390631 96533","OBJECT_ID":"2020-057X","EPHEMERIS_TYPE":"0","PERIOD":"95.593","MEAN_ANOMALY":"308.6093","MEAN_MOTION_DOT":"0.00000487"},{"BSTAR":"0.00027241000000","ARG_OF_PERICENTER":"49.6087","OBJECT_NAME":"STARLINK-1594","REV_AT_EPOCH":"9784","DECAY_DATE":null,"RA_OF_ASC_NODE":"34.8127","REF_FRAME":"TEME","PERIAPSIS":"545.925","CLASSIFICATION_TYPE":"U","OBJECT_ID":"2020-057Z","NORAD_CAT_ID":"46140","SITE":"AFETR","TLE_LINE1":"1 46140U 20057Z   22140.07910605  .00003778  00000-0  27241-3 0  9990","TLE_LINE2":"2 46140  53.0552  34.8127 0001870  49.6087 310.5065 15.06398034 97849","EPHEMERIS_TYPE":"0","MEAN_ANOMALY":"310.5065","PERIOD":"95.592","MEAN_MOTION_DOT":"0.00003778","CENTER_NAME":"EARTH","TIME_SYSTEM":"UTC","ELEMENT_SET_NO":"999","RCS_SIZE":"LARGE","SEMIMAJOR_AXIS":"6925.355","MEAN_ELEMENT_THEORY":"SGP4","MEAN_MOTION":"15.06398034","FILE":"3453849","EPOCH":"2022-05-20T01:53:54.762720","INCLINATION":"53.0552","GP_ID":"203991349","ECCENTRICITY":"0.00018700","LAUNCH_DATE":"2020-08-18","APOAPSIS":"548.515","MEAN_MOTION_DDOT":"0.0000000000000","OBJECT_TYPE":"PAYLOAD","COUNTRY_CODE":"US"},{"MEAN_MOTION_DOT":"-0.00000738","MEAN_ANOMALY":"293.7177","PERIOD":"95.593","EPHEMERIS_TYPE":"0","OBJECT_ID":"2020-057AA","SITE":"AFETR","NORAD_CAT_ID":"46141","TLE_LINE1":"1 46141U 20057AA  22140.05699752 -.00000738  00000-0 -30659-4 0  9999","TLE_LINE2":"2 46141  53.0562  34.9118 0001765  66.3997 293.7177 15.06390039 97833","REF_FRAME":"TEME","PERIAPSIS":"546.022","CLASSIFICATION_TYPE":"U","DECAY_DATE":null,"RA_OF_ASC_NODE":"34.9118","OBJECT_NAME":"STARLINK-1596","REV_AT_EPOCH":"9783","BSTAR":"-0.00003065900000","ARG_OF_PERICENTER":"66.3997","OBJECT_TYPE":"PAYLOAD","COUNTRY_CODE":"US","MEAN_MOTION_DDOT":"0.0000000000000","LAUNCH_DATE":"2020-08-18","APOAPSIS":"548.466","GP_ID":"203991590","ECCENTRICITY":"0.00017650","SEMIMAJOR_AXIS":"6925.379","MEAN_ELEMENT_THEORY":"SGP4","MEAN_MOTION":"15.06390039","FILE":"3453841","INCLINATION":"53.0562","EPOCH":"2022-05-20T01:22:04.585728","ELEMENT_SET_NO":"999","RCS_SIZE":"LARGE","CENTER_NAME":"EARTH","TIME_SYSTEM":"UTC"},{"MEAN_MOTION_DOT":"0.00004709","PERIOD":"95.592","MEAN_ANOMALY":"306.7120","EPHEMERIS_TYPE":"0","TLE_LINE1":"1 46142U 20057AB  22140.07541894  .00004709  00000-0  33483-3 0  9992","TLE_LINE2":"2 46142  53.0548  74.8418 0001878  53.4042 306.7120 15.06401076 97272","NORAD_CAT_ID":"46142","SITE":"AFETR","OBJECT_ID":"2020-057AB","PERIAPSIS":"545.910","CLASSIFICATION_TYPE":"U","REF_FRAME":"TEME","RA_OF_ASC_NODE":"74.8418","DECAY_DATE":null,"REV_AT_EPOCH":"9727","OBJECT_NAME":"STARLINK-1597","BSTAR":"0.00033483000000","ARG_OF_PERICENTER":"53.4042","COUNTRY_CODE":"US","OBJECT_TYPE":"PAYLOAD","MEAN_MOTION_DDOT":"0.0000000000000","LAUNCH_DATE":"2020-08-18","APOAPSIS":"548.511","ECCENTRICITY":"0.00018780","GP_ID":"203991359","INCLINATION":"53.0548","EPOCH":"2022-05-20T01:48:36.196416","FILE":"3453841","MEAN_MOTION":"15.06401076","MEAN_ELEMENT_THEORY":"SGP4","SEMIMAJOR_AXIS":"6925.345","RCS_SIZE":"LARGE","ELEMENT_SET_NO":"999","TIME_SYSTEM":"UTC","CENTER_NAME":"EARTH"},{"RA_OF_ASC_NODE":"56.1970","DECAY_DATE":null,"CLASSIFICATION_TYPE":"U","PERIAPSIS":"546.139","REF_FRAME":"TEME","BSTAR":"-0.00010127000000","ARG_OF_PERICENTER":"56.6456","REV_AT_EPOCH":"8510","OBJECT_NAME":"STARLINK-1606","PERIOD":"95.593","MEAN_ANOMALY":"303.4685","MEAN_MOTION_DOT":"-0.00001789","TLE_LINE2":"2 46144  53.0564  56.1970 0001588  56.6456 303.4685 15.06391731 85105","TLE_LINE1":"1 46144U 20057AD  22139.77502079 -.00001789  00000-0 -10127-3 0  9998","NORAD_CAT_ID":"46144","SITE":"AFETR","OBJECT_ID":"2020-057AD","EPHEMERIS_TYPE":"0","EPOCH":"2022-05-19T18:36:01.796256","INCLINATION":"53.0564","FILE":"3453812","MEAN_MOTION":"15.06391731","SEMIMAJOR_AXIS":"6925.374","MEAN_ELEMENT_THEORY":"SGP4","ECCENTRICITY":"0.00015880","GP_ID":"203984651","TIME_SYSTEM":"UTC","CENTER_NAME":"EARTH","RCS_SIZE":"LARGE","ELEMENT_SET_NO":"999","MEAN_MOTION_DDOT":"0.0000000000000","COUNTRY_CODE":"US","OBJECT_TYPE":"PAYLOAD","LAUNCH_DATE":"2020-08-18","APOAPSIS":"548.339"},{"BSTAR":"0.00000293480000","ARG_OF_PERICENTER":"53.3539","OBJECT_NAME":"STARLINK-1608","REV_AT_EPOCH":"9728","DECAY_DATE":null,"RA_OF_ASC_NODE":"74.7774","REF_FRAME":"TEME","PERIAPSIS":"545.882","CLASSIFICATION_TYPE":"U","OBJECT_ID":"2020-057AF","SITE":"AFETR","NORAD_CAT_ID":"46146","TLE_LINE2":"2 46146  53.0570  74.7774 0001926  53.3539 306.7627 15.06399337 97288","TLE_LINE1":"1 46146U 20057AF  22140.08647579 -.00000238  00000-0  29348-5 0  9995","EPHEMERIS_TYPE":"0","MEAN_ANOMALY":"306.7627","PERIOD":"95.592","MEAN_MOTION_DOT":"-0.00000238","CENTER_NAME":"EARTH","TIME_SYSTEM":"UTC","ELEMENT_SET_NO":"999","RCS_SIZE":"LARGE","SEMIMAJOR_AXIS":"6925.351","MEAN_ELEMENT_THEORY":"SGP4","MEAN_MOTION":"15.06399337","FILE":"3453845","INCLINATION":"53.0570","EPOCH":"2022-05-20T02:04:31.508256","GP_ID":"203991412","ECCENTRICITY":"0.00019260","APOAPSIS":"548.549","LAUNCH_DATE":"2020-08-18","MEAN_MOTION_DDOT":"0.0000000000000","OBJECT_TYPE":"PAYLOAD","COUNTRY_CODE":"US"},{"EPOCH":"2022-05-19T12:53:39.997536","INCLINATION":"53.0561","FILE":"3453114","MEAN_MOTION":"15.06393096","SEMIMAJOR_AXIS":"6925.370","MEAN_ELEMENT_THEORY":"SGP4","ECCENTRICITY":"0.00023070","GP_ID":"203949298","TIME_SYSTEM":"UTC","CENTER_NAME":"EARTH","RCS_SIZE":"LARGE","ELEMENT_SET_NO":"999","MEAN_MOTION_DDOT":"0.0000000000000","COUNTRY_CODE":"US","OBJECT_TYPE":"PAYLOAD","LAUNCH_DATE":"2020-08-18","APOAPSIS":"548.832","RA_OF_ASC_NODE":"77.2524","DECAY_DATE":null,"PERIAPSIS":"545.637","CLASSIFICATION_TYPE":"U","REF_FRAME":"TEME","BSTAR":"-0.00007419200000","ARG_OF_PERICENTER":"40.9363","REV_AT_EPOCH":"9719","OBJECT_NAME":"STARLINK-1611","PERIOD":"95.593","MEAN_ANOMALY":"319.1799","MEAN_MOTION_DOT":"-0.00001387","TLE_LINE1":"1 46147U 20057AG  22139.53726849 -.00001387  00000-0 -74192-4 0  9995","TLE_LINE2":"2 46147  53.0561  77.2524 0002307  40.9363 319.1799 15.06393096 97195","NORAD_CAT_ID":"46147","SITE":"AFETR","OBJECT_ID":"2020-057AG","EPHEMERIS_TYPE":"0"},{"MEAN_MOTION_DOT":"-0.00007883","MEAN_ANOMALY":"309.6791","PERIOD":"95.589","EPHEMERIS_TYPE":"0","OBJECT_ID":"2020-057AH","TLE_LINE2":"2 46148  53.0578  54.8509 0001508  50.4331 309.6791 15.06442083 97558","TLE_LINE1":"1 46148U 20057AH  22140.07356997 -.00007883  00000-0 -51030-3 0  9992","SITE":"AFETR","NORAD_CAT_ID":"46148","CLASSIFICATION_TYPE":"U","PERIAPSIS":"546.040","REF_FRAME":"TEME","DECAY_DATE":null,"RA_OF_ASC_NODE":"54.8509","OBJECT_NAME":"STARLINK-1616","REV_AT_EPOCH":"9755","BSTAR":"-0.00051030000000","ARG_OF_PERICENTER":"50.4331","OBJECT_TYPE":"PAYLOAD","COUNTRY_CODE":"US","MEAN_MOTION_DDOT":"0.0000000000000","LAUNCH_DATE":"2020-08-18","APOAPSIS":"548.129","ECCENTRICITY":"0.00015080","GP_ID":"203991641","MEAN_MOTION":"15.06442083","SEMIMAJOR_AXIS":"6925.220","MEAN_ELEMENT_THEORY":"SGP4","EPOCH":"2022-05-20T01:45:56.445408","INCLINATION":"53.0578","FILE":"3453845","ELEMENT_SET_NO":"999","RCS_SIZE":"LARGE","TIME_SYSTEM":"UTC","CENTER_NAME":"EARTH"}];
